{"type": "FeatureCollection", "features": [ {"type": "Feature", "properties": {"norad_id": 66980, "name": "STARLINK-36086", "group": "last-30-days", "lat": 26.59155282896547, "lon": 111.04045305354109, "alt_km": 393.97105480913797, "timestamp": "2025-12-27T07:26:23.948042+00:00", "meta": {"OBJECT_NAME": "STARLINK-36086", "OBJECT_ID": "2025-288X", "EPOCH": "2025-12-26T22:00:01.999584", "MEAN_MOTION": 15.58330997, "ECCENTRICITY": 0.00014915, "INCLINATION": 43.0004, "RA_OF_ASC_NODE": 80.8732, "ARG_OF_PERICENTER": 275.8587, "MEAN_ANOMALY": 77.3746, "EPHEMERIS_TYPE": 0, "CLASSIFICATION_TYPE": "U", "NORAD_CAT_ID": 66980, "ELEMENT_SET_NO": 999, "REV_AT_EPOCH": 410, "BSTAR": -0.029959546, "MEAN_MOTION_DOT": -0.0208204, "MEAN_MOTION_DDOT": 0}, "tle": {"line1": "1 66980U 25288X   25360.91668981 -.02082040  00000+0 -29960-1 0  9992", "line2": "2 66980  43.0004  80.8732 0001491 275.8587  77.3746 15.58330997  4106"}}, "geometry": {"type": "Point", "coordinates": [111.04045305354109, 26.59155282896547]}}, {"type": "Feature", "properties": {"norad_id": 66981, "name": "STARLINK-36142", "group": "last-30-days", "lat": 27.684622569513937, "lon": 112.80960873951148, "alt_km": 393.853964300547, "timestamp": "2025-12-27T07:26:23.948052+00:00", "meta": {"OBJECT_NAME": "STARLINK-36142", "OBJECT_ID": "2025-288Y", "EPOCH": "2025-12-26T22:00:01.999584", "MEAN_MOTION": 15.58333305, "ECCENTRICITY": 0.00015671, "INCLINATION": 43.0003, "RA_OF_ASC_NODE": 80.8683, "ARG_OF_PERICENTER": 276.3354, "MEAN_ANOMALY": 78.815, "EPHEMERIS_TYPE": 0, "CLASSIFICATION_TYPE": "U", "NORAD_CAT_ID": 66981, "ELEMENT_SET_NO": 999, "REV_AT_EPOCH": 410, "BSTAR": -0.030020847, "MEAN_MOTION_DOT": -0.02086054, "MEAN_MOTION_DDOT": 0}, "tle": {"line1": "1 66981U 25288Y   25360.91668981 -.02086054  00000+0 -30021-1 0  9992", "line2": "2 66981  43.0003  80.8683 0001567 276.3354  78.8150 15.58333305  4104"}}, "geometry": {"type": "Point", "coordinates": [112.80960873951148, 27.684622569513937]}}, {"type": "Feature", "properties": {"norad_id": 66982, "name": "STARLINK-36113", "group": "last-30-days", "lat": 28.754691518555344, "lon": 114.61427792215339, "alt_km": 393.7456481728859, "timestamp": "2025-12-27T07:26:23.948062+00:00", "meta": {"OBJECT_NAME": "STARLINK-36113", "OBJECT_ID": "2025-288Z", "EPOCH": "2025-12-26T22:00:01.999584", "MEAN_MOTION": 15.58331363, "ECCENTRICITY": 0.00017262, "INCLINATION": 43.0006, "RA_OF_ASC_NODE": 80.8639, "ARG_OF_PERICENTER": 277.2543, "MEAN_ANOMALY": 79.8098, "EPHEMERIS_TYPE": 0, "CLASSIFICATION_TYPE": "U", "NORAD_CAT_ID": 66982, "ELEMENT_SET_NO": 999, "REV_AT_EPOCH": 410, "BSTAR": -0.02988844, "MEAN_MOTION_DOT": -0.02077819, "MEAN_MOTION_DDOT": 0}, "tle": {"line1": "1 66982U 25288Z   25360.91668981 -.02077819  00000+0 -29888-1 0  9991", "line2": "2 66982  43.0006  80.8639 0001726 277.2543  79.8098 15.58331363  4100"}}, "geometry": {"type": "Point", "coordinates": [114.61427792215339, 28.754691518555344]}}, {"type": "Feature", "properties": {"norad_id": 66983, "name": "STARLINK-36145", "group": "last-30-days", "lat": 30.81720757316728, "lon": 118.33223382512583, "alt_km": 393.4565106988175, "timestamp": "2025-12-27T07:26:23.948074+00:00", "meta": {"OBJECT_NAME": "STARLINK-36145", "OBJECT_ID": "2025-288AA", "EPOCH": "2025-12-26T22:00:01.999584", "MEAN_MOTION": 15.58325212, "ECCENTRICITY": 0.00015032, "INCLINATION": 43.0002, "RA_OF_ASC_NODE": 80.8539, "ARG_OF_PERICENTER": 273.7241, "MEAN_ANOMALY": 87.18, "EPHEMERIS_TYPE": 0, "CLASSIFICATION_TYPE": "U", "NORAD_CAT_ID": 66983, "ELEMENT_SET_NO": 999, "REV_AT_EPOCH": 410, "BSTAR": -0.029777124, "MEAN_MOTION_DOT": -0.02070328, "MEAN_MOTION_DDOT": 0}, "tle": {"line1": "1 66983U 25288AA  25360.91668981 -.02070328  00000+0 -29777-1 0  9997", "line2": "2 66983  43.0002  80.8539 0001503 273.7241  87.1800 15.58325212  4104"}}, "geometry": {"type": "Point", "coordinates": [118.33223382512583, 30.81720757316728]}}, {"type": "Feature", "properties": {"norad_id": 66984, "name": "STARLINK-35591", "group": "last-30-days", "lat": 29.79837998162169, "lon": 116.45252655977885, "alt_km": 393.6034605313789, "timestamp": "2025-12-27T07:26:23.948084+00:00", "meta": {"OBJECT_NAME": "STARLINK-35591", "OBJECT_ID": "2025-288AB", "EPOCH": "2025-12-26T22:00:01.999584", "MEAN_MOTION": 15.58326151, "ECCENTRICITY": 0.00014648, "INCLINATION": 43.0003, "RA_OF_ASC_NODE": 80.8584, "ARG_OF_PERICENTER": 272.1066, "MEAN_ANOMALY": 86.8803, "EPHEMERIS_TYPE": 0, "CLASSIFICATION_TYPE": "U", "NORAD_CAT_ID": 66984, "ELEMENT_SET_NO": 999, "REV_AT_EPOCH": 410, "BSTAR": -0.029801186, "MEAN_MOTION_DOT": -0.02071861, "MEAN_MOTION_DDOT": 0}, "tle": {"line1": "1 66984U 25288AB  25360.91668981 -.02071861  00000+0 -29801-1 0  9999", "line2": "2 66984  43.0003  80.8584 0001464 272.1066  86.8803 15.58326151  4102"}}, "geometry": {"type": "Point", "coordinates": [116.45252655977885, 29.79837998162169]}}, {"type": "Feature", "properties": {"norad_id": 66985, "name": "STARLINK-36103", "group": "last-30-days", "lat": 31.808231923814144, "lon": 120.25128930551747, "alt_km": 393.3453090374178, "timestamp": "2025-12-27T07:26:23.948094+00:00", "meta": {"OBJECT_NAME": "STARLINK-36103", "OBJECT_ID": "2025-288AC", "EPOCH": "2025-12-26T22:00:01.999584", "MEAN_MOTION": 15.58324736, "ECCENTRICITY": 0.00015548, "INCLINATION": 43.0002, "RA_OF_ASC_NODE": 80.849, "ARG_OF_PERICENTER": 274.0772, "MEAN_ANOMALY": 88.7441, "EPHEMERIS_TYPE": 0, "CLASSIFICATION_TYPE": "U", "NORAD_CAT_ID": 66985, "ELEMENT_SET_NO": 999, "REV_AT_EPOCH": 410, "BSTAR": -0.029764423, "MEAN_MOTION_DOT": -0.02069541, "MEAN_MOTION_DDOT": 0}, "tle": {"line1": "1 66985U 25288AC  25360.91668981 -.02069541  00000+0 -29764-1 0  9990", "line2": "2 66985  43.0002  80.8490 0001554 274.0772  88.7441 15.58324736  4109"}}, "geometry": {"type": "Point", "coordinates": [120.25128930551747, 31.808231923814144]}}, {"type": "Feature", "properties": {"norad_id": 66986, "name": "STARLINK-36135", "group": "last-30-days", "lat": 32.76976699246161, "lon": 122.21040453911178, "alt_km": 393.2160526177795, "timestamp": "2025-12-27T07:26:23.948104+00:00", "meta": {"OBJECT_NAME": "STARLINK-36135", "OBJECT_ID": "2025-288AD", "EPOCH": "2025-12-26T22:00:01.999584", "MEAN_MOTION": 15.58325764, "ECCENTRICITY": 0.00015813, "INCLINATION": 43.0004, "RA_OF_ASC_NODE": 80.8433, "ARG_OF_PERICENTER": 274.9773, "MEAN_ANOMALY": 89.7597, "EPHEMERIS_TYPE": 0, "CLASSIFICATION_TYPE": "U", "NORAD_CAT_ID": 66986, "ELEMENT_SET_NO": 999, "REV_AT_EPOCH": 410, "BSTAR": -0.029767179, "MEAN_MOTION_DOT": -0.02069803, "MEAN_MOTION_DDOT": 0}, "tle": {"line1": "1 66986U 25288AD  25360.91668981 -.02069803  00000+0 -29767-1 0  9995", "line2": "2 66986  43.0004  80.8433 0001581 274.9773  89.7597 15.58325764  4104"}}, "geometry": {"type": "Point", "coordinates": [122.21040453911178, 32.76976699246161]}}, {"type": "Feature", "properties": {"norad_id": 66987, "name": "STARLINK-36147", "group": "last-30-days", "lat": 33.70040105282661, "lon": 124.21514522192997, "alt_km": 393.1475952789742, "timestamp": "2025-12-27T07:26:23.948117+00:00", "meta": {"OBJECT_NAME": "STARLINK-36147", "OBJECT_ID": "2025-288AE", "EPOCH": "2025-12-26T22:00:01.999584", "MEAN_MOTION": 15.5832864, "ECCENTRICITY": 0.0001721, "INCLINATION": 43.0004, "RA_OF_ASC_NODE": 80.8397, "ARG_OF_PERICENTER": 275.8694, "MEAN_ANOMALY": 90.7816, "EPHEMERIS_TYPE": 0, "CLASSIFICATION_TYPE": "U", "NORAD_CAT_ID": 66987, "ELEMENT_SET_NO": 999, "REV_AT_EPOCH": 410, "BSTAR": -0.029785434, "MEAN_MOTION_DOT": -0.02071234, "MEAN_MOTION_DDOT": 0}, "tle": {"line1": "1 66987U 25288AE  25360.91668981 -.02071234  00000+0 -29785-1 0  9997", "line2": "2 66987  43.0004  80.8397 0001721 275.8694  90.7816 15.58328640  4104"}}, "geometry": {"type": "Point", "coordinates": [124.21514522192997, 33.70040105282661]}}, {"type": "Feature", "properties": {"norad_id": 66988, "name": "YAOGAN-47", "group": "last-30-days", "lat": -76.46589632270184, "lon": 99.78454050781842, "alt_km": 503.6666108403351, "timestamp": "2025-12-27T07:26:23.948127+00:00", "meta": {"OBJECT_NAME": "YAOGAN-47", "OBJECT_ID": "2025-289A", "EPOCH": "2025-12-20T02:21:43.539840", "MEAN_MOTION": 15.23243112, "ECCENTRICITY": 6.467e-05, "INCLINATION": 97.5265, "RA_OF_ASC_NODE": 59.2376, "ARG_OF_PERICENTER": 91.4531, "MEAN_ANOMALY": 268.678, "EPHEMERIS_TYPE": 0, "CLASSIFICATION_TYPE": "U", "NORAD_CAT_ID": 66988, "ELEMENT_SET_NO": 999, "REV_AT_EPOCH": 166, "BSTAR": 0.00010945697, "MEAN_MOTION_DOT": 2.52e-05, "MEAN_MOTION_DDOT": 0}, "tle": {"line1": "1 66988U 25289A   25354.09842060  .00002520  00000+0  10946-3 0  9992", "line2": "2 66988  97.5265  59.2376 0000646  91.4531 268.6780 15.23243112  1668"}}, "geometry": {"type": "Point", "coordinates": [99.78454050781842, -76.46589632270184]}}, {"type": "Feature", "properties": {"norad_id": 66989, "name": "CZ-4B R/B", "group": "last-30-days", "lat": -32.194035442835855, "lon": 72.50765298744358, "alt_km": 275.274342127851, "timestamp": "2025-12-27T07:26:23.948137+00:00", "meta": {"OBJECT_NAME": "CZ-4B R/B", "OBJECT_ID": "2025-289B", "EPOCH": "2025-12-26T22:24:06.291360", "MEAN_MOTION": 15.70743332, "ECCENTRICITY": 0.01381098, "INCLINATION": 97.5229, "RA_OF_ASC_NODE": 67.3294, "ARG_OF_PERICENTER": 309.0218, "MEAN_ANOMALY": 49.8813, "EPHEMERIS_TYPE": 0, "CLASSIFICATION_TYPE": "U", "NORAD_CAT_ID": 66989, "ELEMENT_SET_NO": 999, "REV_AT_EPOCH": 279, "BSTAR": 0.00064190256, "MEAN_MOTION_DOT": 0.00140333, "MEAN_MOTION_DDOT": 8.03378e-06}, "tle": {"line1": "1 66989U 25289B   25360.93340615  .00140333  80338-5  64190-3 0  9995", "line2": "2 66989  97.5229  67.3294 0138109 309.0218  49.8813 15.70743332  2796"}}, "geometry": {"type": "Point", "coordinates": [72.50765298744358, -32.194035442835855]}}]}